STARLINK-31217          
1 59036U 24038P   26067.99010758  .00010281  00000+0  37774-3 0  9992
2 59036  43.0013 293.1531 0001104 271.0681  89.0045 15.28001451115832
2025-313BE              
1 67482U 25313BE  26068.69721505  .00077178  00000+0  26504-2 0  9996
2 67482  97.3989 145.3568 0007208 335.3714  24.7181 15.29801687  7972
